[
    {
        "Altitude(m)": 611967.2108687112,
        "Argument of Periapsis(deg)": 0.0,
        "Eccentricity": 0.0,
        "Inclination(deg)": 60.0,
        "Latitude(deg)": 59.1402583842295,
        "Longitude(deg)": 81.0920219050942,
        "Mean Anomaly(deg)": 98.18180000000001,
        "RAAN(deg)": 75.0,
        "Satellite Name": "Test1 336",
        "Satellite Number": 336,
        "Semi-Major Axis(m)": 6980739.136638005,
        "Time(s)": 0
    },
    {
        "Altitude(m)": 611934.4109559666,
        "Argument of Periapsis(deg)": 0.00010418945913296404,
        "Eccentricity": 0.0,
        "Inclination(deg)": 60.0,
        "Latitude(deg)": 58.986620973482104,
        "Longitude(deg)": 82.21527100703668,
        "Mean Anomaly(deg)": 98.80190614546183,
        "RAAN(deg)": 74.99957995086027,
        "Satellite Name": "Test1 336",
        "Satellite Number": 336,
        "Semi-Major Axis(m)": 6980739.136638005,
        "Time(s)": 10
    },
    {
        "Altitude(m)": 611899.3063969859,
        "Argument of Periapsis(deg)": 0.0002083789182659281,
        "Eccentricity": 0.0,
        "Inclination(deg)": 60.0,
        "Latitude(deg)": 58.82260541221071,
        "Longitude(deg)": 83.32785474065365,
        "Mean Anomaly(deg)": 99.42201229092363,
        "RAAN(deg)": 74.99915990172052,
        "Satellite Name": "Test1 336",
        "Satellite Number": 336,
        "Semi-Major Axis(m)": 6980739.136638005,
        "Time(s)": 20
    },
    {
        "Altitude(m)": 611861.9174260235,
        "Argument of Periapsis(deg)": 0.00031256837739889213,
        "Eccentricity": 0.0,
        "Inclination(deg)": 60.0,
        "Latitude(deg)": 58.64837475065469,
        "Longitude(deg)": 84.42926130458281,
        "Mean Anomaly(deg)": 100.04211843638548,
        "RAAN(deg)": 74.99873985258078,
        "Satellite Name": "Test1 336",
        "Satellite Number": 336,
        "Semi-Major Axis(m)": 6980739.136638005,
        "Time(s)": 30
    },
    {
        "Altitude(m)": 611822.2656031654,
        "Argument of Periapsis(deg)": 0.0004167578365318562,
        "Eccentricity": 0.0,
        "Inclination(deg)": 60.0,
        "Latitude(deg)": 58.46409848812062,
        "Longitude(deg)": 85.51901964669145,
        "Mean Anomaly(deg)": 100.66222458184733,
        "RAAN(deg)": 74.99831980344103,
        "Satellite Name": "Test1 336",
        "Satellite Number": 336,
        "Semi-Major Axis(m)": 6980739.136638005,
        "Time(s)": 40
    },
    {
        "Altitude(m)": 611780.3738041273,
        "Argument of Periapsis(deg)": 0.0005209472956648203,
        "Eccentricity": 0.0,
        "Inclination(deg)": 60.0,
        "Latitude(deg)": 58.269951856452884,
        "Longitude(deg)": 86.59669868777723,
        "Mean Anomaly(deg)": 101.28233072730914,
        "RAAN(deg)": 74.9978997543013,
        "Satellite Name": "Test1 336",
        "Satellite Number": 336,
        "Semi-Major Axis(m)": 6980739.136638005,
        "Time(s)": 50
    },
    {
        "Altitude(m)": 611736.2662094487,
        "Argument of Periapsis(deg)": 0.0006251367547977843,
        "Eccentricity": 0.0,
        "Inclination(deg)": 60.0,
        "Latitude(deg)": 58.06611510996214,
        "Longitude(deg)": 87.66190776813926,
        "Mean Anomaly(deg)": 101.90243687277098,
        "RAAN(deg)": 74.99747970516155,
        "Satellite Name": "Test1 336",
        "Satellite Number": 336,
        "Semi-Major Axis(m)": 6980739.136638005,
        "Time(s)": 60
    },
    {
        "Altitude(m)": 611689.9682930309,
        "Argument of Periapsis(deg)": 0.0007293262139307483,
        "Eccentricity": 0.0,
        "Inclination(deg)": 60.0,
        "Latitude(deg)": 57.85277282719349,
        "Longitude(deg)": 88.71429682437423,
        "Mean Anomaly(deg)": 102.52254301823282,
        "RAAN(deg)": 74.9970596560218,
        "Satellite Name": "Test1 336",
        "Satellite Number": 336,
        "Semi-Major Axis(m)": 6980739.136638005,
        "Time(s)": 70
    },
    {
        "Altitude(m)": 611641.5068100907,
        "Argument of Periapsis(deg)": 0.0008335156730637124,
        "Eccentricity": 0.0,
        "Inclination(deg)": 60.0,
        "Latitude(deg)": 57.63011322937588,
        "Longitude(deg)": 89.75355480590562,
        "Mean Anomaly(deg)": 103.14264916369463,
        "RAAN(deg)": 74.99663960688207,
        "Satellite Name": "Test1 336",
        "Satellite Number": 336,
        "Semi-Major Axis(m)": 6980739.136638005,
        "Time(s)": 80
    },
    {
        "Altitude(m)": 611590.9097844725,
        "Argument of Periapsis(deg)": 0.0009377051321966765,
        "Eccentricity": 0.0,
        "Inclination(deg)": 60.0,
        "Latitude(deg)": 57.39832751982516,
        "Longitude(deg)": 90.77940938093167,
        "Mean Anomaly(deg)": 103.76275530915647,
        "RAAN(deg)": 74.99621955774232,
        "Satellite Name": "Test1 336",
        "Satellite Number": 336,
        "Semi-Major Axis(m)": 6980739.136638005,
        "Time(s)": 90
    },
    {
        "Altitude(m)": 611538.2064953769,
        "Argument of Periapsis(deg)": 0.0010418945913296407,
        "Eccentricity": 0.0,
        "Inclination(deg)": 60.0,
        "Latitude(deg)": 57.157609247986684,
        "Longitude(deg)": 91.79162644380251,
        "Mean Anomaly(deg)": 104.3828614546183,
        "RAAN(deg)": 74.99579950860257,
        "Satellite Name": "Test1 336",
        "Satellite Number": 336,
        "Semi-Major Axis(m)": 6980739.136638005,
        "Time(s)": 100
    },
    {
        "Altitude(m)": 611483.4274634597,
        "Argument of Periapsis(deg)": 0.0011460840504626045,
        "Eccentricity": 0.0,
        "Inclination(deg)": 60.0,
        "Latitude(deg)": 56.90815370121705,
        "Longitude(deg)": 92.79000793625342,
        "Mean Anomaly(deg)": 105.0029676000801,
        "RAAN(deg)": 74.99537945946284,
        "Satellite Name": "Test1 336",
        "Satellite Number": 336,
        "Semi-Major Axis(m)": 6980739.136638005,
        "Time(s)": 110
    },
    {
        "Altitude(m)": 611426.6044363709,
        "Argument of Periapsis(deg)": 0.0012502735095955685,
        "Eccentricity": 0.0,
        "Inclination(deg)": 60.0,
        "Latitude(deg)": 56.650157326830346,
        "Longitude(deg)": 93.7743910334831,
        "Mean Anomaly(deg)": 105.62307374554194,
        "RAAN(deg)": 74.99495941032309,
        "Satellite Name": "Test1 336",
        "Satellite Number": 336,
        "Semi-Major Axis(m)": 6980739.136638005,
        "Time(s)": 120
    },
    {
        "Altitude(m)": 611367.770373654,
        "Argument of Periapsis(deg)": 0.0013544629687285324,
        "Eccentricity": 0.0,
        "Inclination(deg)": 60.0,
        "Latitude(deg)": 56.38381718637669,
        "Longitude(deg)": 94.7446472069319,
        "Mean Anomaly(deg)": 106.24317989100379,
        "RAAN(deg)": 74.99453936118336,
        "Satellite Name": "Test1 336",
        "Satellite Number": 336,
        "Semi-Major Axis(m)": 6980739.136638005,
        "Time(s)": 130
    },
    {
        "Altitude(m)": 611306.9594310977,
        "Argument of Periapsis(deg)": 0.0014586524278614966,
        "Eccentricity": 0.0,
        "Inclination(deg)": 60.0,
        "Latitude(deg)": 56.109330443596,
        "Longitude(deg)": 95.70067967474517,
        "Mean Anomaly(deg)": 106.86328603646564,
        "RAAN(deg)": 74.9941193120436,
        "Satellite Name": "Test1 336",
        "Satellite Number": 336,
        "Semi-Major Axis(m)": 6980739.136638005,
        "Time(s)": 140
    },
    {
        "Altitude(m)": 611244.2069444973,
        "Argument of Periapsis(deg)": 0.0015628418869944607,
        "Eccentricity": 0.0,
        "Inclination(deg)": 60.0,
        "Latitude(deg)": 55.826893886997716,
        "Longitude(deg)": 96.64242228837212,
        "Mean Anomaly(deg)": 107.48339218192744,
        "RAAN(deg)": 74.99369926290386,
        "Satellite Name": "Test1 336",
        "Satellite Number": 336,
        "Semi-Major Axis(m)": 6980739.136638005,
        "Time(s)": 150
    },
    {
        "Altitude(m)": 611179.5494128354,
        "Argument of Periapsis(deg)": 0.0016670313461274247,
        "Eccentricity": 0.0,
        "Inclination(deg)": 60.0,
        "Latitude(deg)": 55.53670348756771,
        "Longitude(deg)": 97.56983836370684,
        "Mean Anomaly(deg)": 108.10349832738926,
        "RAAN(deg)": 74.99327921376411,
        "Satellite Name": "Test1 336",
        "Satellite Number": 336,
        "Semi-Major Axis(m)": 6980739.136638005,
        "Time(s)": 160
    },
    {
        "Altitude(m)": 611113.0244809017,
        "Argument of Periapsis(deg)": 0.0017712208052603888,
        "Eccentricity": 0.0,
        "Inclination(deg)": 60.0,
        "Latitude(deg)": 55.23895399169477,
        "Longitude(deg)": 98.48291796359544,
        "Mean Anomaly(deg)": 108.72360447285111,
        "RAAN(deg)": 74.99285916462438,
        "Satellite Name": "Test1 336",
        "Satellite Number": 336,
        "Semi-Major Axis(m)": 6980739.136638005,
        "Time(s)": 170
    },
    {
        "Altitude(m)": 611044.6709213565,
        "Argument of Periapsis(deg)": 0.001875410264393353,
        "Eccentricity": 0.0,
        "Inclination(deg)": 60.0,
        "Latitude(deg)": 54.933838549048886,
        "Longitude(deg)": 99.38167667545564,
        "Mean Anomaly(deg)": 109.34371061831294,
        "RAAN(deg)": 74.99243911548463,
        "Satellite Name": "Test1 336",
        "Satellite Number": 336,
        "Semi-Major Axis(m)": 6980739.136638005,
        "Time(s)": 180
    },
    {
        "Altitude(m)": 610974.5286162408,
        "Argument of Periapsis(deg)": 0.0019795997235263173,
        "Eccentricity": 0.0,
        "Inclination(deg)": 60.0,
        "Latitude(deg)": 54.62154837482593,
        "Longitude(deg)": 100.2661543873474,
        "Mean Anomaly(deg)": 109.96381676377479,
        "RAAN(deg)": 74.9920190663449,
        "Satellite Name": "Test1 336",
        "Satellite Number": 336,
        "Semi-Major Axis(m)": 6980739.136638005,
        "Time(s)": 190
    }
]